[{"OBJECT_NAME":"STARLINK-35286","OBJECT_ID":"2025-218N","EPOCH":"2026-03-09T14:32:37.590432","MEAN_MOTION":15.0564936,"ECCENTRICITY":0.0002899,"INCLINATION":97.6012,"RA_OF_ASC_NODE":292.8177,"ARG_OF_PERICENTER":85.3734,"MEAN_ANOMALY":274.7823,"EPHEMERIS_TYPE":0,"CLASSIFICATION_TYPE":"U","NORAD_CAT_ID":65803,"ELEMENT_SET_NO":999,"REV_AT_EPOCH":2495,"BSTAR":0.00044313,"MEAN_MOTION_DOT":6.339e-5,"MEAN_MOTION_DDOT":0},{"OBJECT_NAME":"HAMSAT (VO-52)","OBJECT_ID":"2005-017B","EPOCH":"2026-03-09T22:34:09.009120","MEAN_MOTION":15.08773202,"ECCENTRICITY":0.00200128,"INCLINATION":97.9995,"RA_OF_ASC_NODE":87.8294,"ARG_OF_PERICENTER":17.3795,"MEAN_ANOMALY":342.8113,"EPHEMERIS_TYPE":0,"CLASSIFICATION_TYPE":"U","NORAD_CAT_ID":28650,"ELEMENT_SET_NO":999,"REV_AT_EPOCH":13179,"BSTAR":0.00045282519,"MEAN_MOTION_DOT":7.08e-5,"MEAN_MOTION_DDOT":0}]
